VDNH-80                 
1 44392U 19038G   21208.47793531  .00001301  00000-0  75444-4 0  9998
2 44392  97.5885 172.9537 0020993 170.1381 339.4761 15.13813849113645
D-STAR ONE (LIGHTSAT)   
1 44393U 19038H   21208.38425982  .00001571  00000-0  90517-4 0  9998
2 44393  97.5907 172.7350 0021520 170.5710 189.5930 15.13711876113828
AMGU-1 (AMURSAT)        
1 44394U 19038J   21208.59855396  .00001742  00000-0  99979-4 0  9999
2 44394  97.5894 172.8931 0021080 170.5208 189.6417 15.13718057113855
DOT-1                   
1 44399U 19038P   21208.51498421  .00001035  00000-0  62484-4 0  9994
2 44399  97.5929 172.2352 0024384 174.3197 185.8314 15.12750400113793
SOKRAT                  
1 44404U 19038U   21208.42422443  .00001618  00000-0  93568-4 0  9996
2 44404  97.5897 172.4867 0021744 172.3110 187.8458 15.13540823113818
LUCKY-7                 
1 44406U 19038W   21208.39688355  .00001109  00000-0  66142-4 0  9993
2 44406  97.5923 172.3434 0024419 167.4481 192.7363 15.13037236113782
D-STAR ONE (EXOCONNECT) 
1 44410U 19038AA  21208.43129155  .00002357  00000-0  13152-3 0  9999
2 44410  97.5868 172.8017 0021458 169.6320 190.5358 15.14360792113847
NARSSCUBE-2             
1 44415U 19022E   21208.50104835  .00001550  00000-0  62681-4 0  9999
2 44415  51.6421 245.3852 0011066 330.6354  29.4004 15.31195867110283
KRAKSAT                 
1 44427U 98067QM  21208.58808069  .00031833  00000-0  26948-3 0  9998
2 44427  51.6393  96.0899 0003268  54.0625  20.3015 15.69408463117772
ENTRYSAT                
1 44429U 98067QP  21208.32125595  .00426975  91797-4  71528-3 0  9994
2 44429  51.6204  68.4271 0005646 251.1396 108.9003 16.02255391118116
NARSSCUBE-1             
1 44792U 98067QX  21208.42601495  .00035236  00000-0  30186-3 0  9990
2 44792  51.6354 107.8439 0004496  88.6692 271.4820 15.69060502 95839
DUCHIFAT-3              
1 44854U 19089C   21208.41291202  .00000590  00000-0  53473-4 0  9996
2 44854  36.9644 224.3153 0007033  99.7860 260.3716 14.99550451 89107
OPS-SAT                 
1 44878U 19092F   21208.50362045  .00001510  00000-0  80477-4 0  9997
2 44878  97.4760  31.4161 0014699  36.7627 323.4611 15.16637025 88903
FLORIPASAT-1            
1 44885U 19093G   21208.45008206  .00000414  00000-0  58352-4 0  9995
2 44885  97.9263 287.4866 0015075 165.5750 194.5901 14.82334250 86695
HUSKYSAT-1 (HO-107)     
1 45119U 19071J   21208.23631774  .00002797  00000-0  89188-4 0  9997
2 45119  51.6402 203.9497 0011847  73.7860 286.4425 15.36061857 83280
G-SAT                   
1 45597U 98067RK  21208.48768130  .00012847  00000-0  16776-3 0  9992
2 45597  51.6398 127.8408 0004509 114.8074 245.3388 15.59043248 70851
QUETZAL-1               
1 45598U 98067RL  21208.14535667  .00021258  00000-0  25140-3 0  9994
2 45598  51.6394 127.8011 0002479 121.3054 238.8182 15.61229341 70754
BY70-2                  
1 45857U 20042B   21208.47728231  .00001566  00000-0  22847-3 0  9998
2 45857  97.9837 283.8106 0012813  88.0875 272.1806 14.77143990 57455
SALSAT                  
1 46495U 20068K   21208.59300050 -.00000265  00000-0 -14837-4 0  9991
2 46495  97.6933 145.8552 0015757 301.3101  58.6583 15.03489160 45361
NETSAT-4                
1 46504U 20068U   21208.60145376  .00000081  00000-0  10796-4 0  9996
2 46504  97.6954 145.1334 0013629 359.5163   0.6028 15.02159847 45260
NETSAT-3                
1 46505U 20068V   21208.54268722  .00000509  00000-0  43337-4 0  9993
2 46505  97.6951 145.0376 0011965  12.2564 347.8953 15.02131555 45261
NETSAT-1                
1 46506U 20068W   21208.55017431  .00000665  00000-0  55224-4 0  9995
2 46506  97.6946 145.0107 0009209  24.2502 335.9170 15.02100559 45260
NETSAT-2                
1 46507U 20068X   21208.48784779  .00000650  00000-0  54115-4 0  9996
2 46507  97.6941 144.9446 0007708  27.0847 333.0739 15.02075749 45201
BY70-3                  
1 46839U 20079N   21208.50889911  .00004522  00000-0  13979-3 0  9997
2 46839  97.2395 281.5731 0008800  69.5926  46.6606 15.33976224 40348
SPOC                    
1 46921U 98067RR  21208.30949315  .00009554  00000-0  14589-3 0  9992
2 46921  51.6416 137.1687 0001228 200.7195 159.3746 15.55152450 41066
BOBCAT-1                
1 46922U 98067RS  21208.34026623  .00016088  00000-0  22303-3 0  9998
2 46922  51.6426 135.1488 0000809 193.2621 166.8350 15.57224085 41058
NEUTRON-1               
1 46923U 98067RT  21208.52112218  .00009891  00000-0  15145-3 0  9995
2 46923  51.6417 136.3295 0000979 223.9460 136.1454 15.55028962 41125
1998-067RU              
1 46924U 98067RU  21208.20197558  .00033304  00000-0  37765-3 0  9999
2 46924  51.6390 131.9323 0000409  20.4178 339.6832 15.62055835 41120
DESCENT                 
1 46927U 98067RX  21208.52651034  .00010244  00000-0  15664-3 0  9993
2 46927  51.6414 136.3623 0001012 268.9326  91.1549 15.55021753 41036
UVSQ-SAT                
1 47438U 21006AB  21208.12424255  .00001243  00000-0  73528-4 0  9992
2 47438  97.4850 268.6347 0011681 327.5779  32.4733 15.13233180 28058
SOMP2B                  
1 47445U 21006AJ  21208.47350651  .00001118  00000-0  66804-4 0  9996
2 47445  97.4822 268.8659 0011369 330.5949  29.4641 15.13070103 28103
WARP-01                 
1 47924U 98067SA  21208.54127665  .00013235  00000-0  21718-3 0  9991
2 47924  51.6415 140.9402 0003571 254.0735 105.9862 15.52764371 21029
RSP-01                  
1 47925U 98067SB  21208.35511218  .00011443  00000-0  19138-3 0  9994
2 47925  51.6423 141.9550 0002008 156.6792 203.4290 15.52388632 20972
TAUSAT-1                
1 47926U 98067SC  21208.37500260  .00012776  00000-0  20711-3 0  9991
2 47926  51.6415 141.3362 0002949 164.2073 195.9010 15.53143497 20974
TSURU                   
1 47927U 98067SD  21208.23591355  .00010217  00000-0  17321-3 0  9993
2 47927  51.6425 142.6588 0002090 156.0041 204.1046 15.52144476 20958
STARS-EC                
1 47928U 98067SE  21208.54784039  .00014094  00000-0  23145-3 0  9999
2 47928  51.6421 140.9853 0004206 259.8130 100.2386 15.52679404 20983
MAYA-2                  
1 47929U 98067SF  21208.10442694  .00010339  00000-0  17502-3 0  9998
2 47929  51.6424 143.2805 0002238 152.9063 207.2044 15.52170509 20892
HIROGARI (OPUSAT-II)    
1 47930U 98067SG  21208.52214476  .00014240  00000-0  23016-3 0  9993
2 47930  51.6421 140.8226 0002245 144.7000 215.4139 15.53118466 21004
GUARANISAT-1            
1 47931U 98067SH  21208.23202859  .00010118  00000-0  17134-3 0  9998
2 47931  51.6425 142.6341 0002278 153.7848 206.3257 15.52187147 20957
DIY-1 (ARDUIQUBE)       
1 47963U 21022AH  21208.25830472  .00002574  00000-0  17333-3 0  9998
2 47963  97.5553 109.8862 0019728 163.3774 196.8105 15.07436811 17898
